#dP2018  1 31  0  0  0.00000000      96 __u+U ITR00 FIT  IAC
## 1986 259200.00000000   900.00000000 58149 0.0000000000000
+   87   C01C02C03C05C06C07C08C09C10C11C12C13C14E01E02E03E04
+        E05E07E08E09E11E12E14E18E19E24E26E30G01G02G03G04G05
+        G06G07G08G09G10G11G12G13G14G15G16G17G19G20G21G22G23
+        G24G25G26G27G28G29G30G31G32J01J02J03R01R02R03R04R05
+        R06R07R08R09R10R11R13R14R15R16R17R18R19R20R21R22R23
+        R24R26  0  0  0  0  0  0  0  0  0  0  0  0  0  0  0
++         0  0  0  0  0  0  0  0  0  0  0  0  0  0  0  0  0
++         0  0  0  0  0  0  0  0  0  0  0  0  0  0  0  0  0
++         0  0  0  0  0  0  0  0  0  0  0  0  0  0  0  0  0
++         0  0  0  0  0  0  0  0  0  0  0  0  0  0  0  0  0
++         0  0  0  0  0  0  0  0  0  0  0  0  0  0  0  0  0
++         0  0  0  0  0  0  0  0  0  0  0  0  0  0  0  0  0
%c M  cc GPS ccc cccc cccc cccc cccc ccccc ccccc ccccc ccccc
%c cc cc ccc ccc cccc cccc cccc cccc ccccc ccccc ccccc ccccc
%f  0.0000000  0.000000000  0.00000000000  0.000000000000000
%f  0.0000000  0.000000000  0.00000000000  0.000000000000000
%i    0    0    0    0      0      0      0      0         0
%i    0    0    0    0      0      0      0      0         0
/*                                                          
/*   RSA / INFORMATION & ANALYSIS CENTER (IAC) OF MCC       
/*   ULTRA-RAPID DETERMINATION                              
/* PCV:IGS14_1984 OL/AL:FES2004  NONE     YN ORB:CoN CLK:CoN
*  2018 01 31 10 30  0.00000000
PC01 -32279.425539  27132.649990    876.128133    308.017638
PC02   4339.086404  41925.142363  -1096.066240   -192.999790
PC03 -14791.985274  39465.547289     38.300314   -181.228070
PC05  21865.867286  36000.276688  -1461.756061   -136.560379
PC06  -9748.164986  35940.797062 -19254.527559   -678.736690
PC07 -14511.496684  21507.682266  33320.745227   -294.376734
PC08 -24765.192389  30748.773173 -15035.894122    147.460872
PC09  -1055.455699  41549.616884  -5916.990767   -449.265872
PC10   1679.690720  26852.123414  32636.160846     17.314124
PC11  15933.024909 -22274.067313  -5083.760014   -373.528699
PC12  18292.126068  -5807.471776 -20162.096342    376.099047
PC13 -11932.334563  31423.949247 -25583.512695   -177.911661
PC14   9847.866359 -13716.442164  22275.030274    176.340521
PE01 -11417.706564 -17765.058536 -20742.751886   -265.792312
PE02  11425.197065  17761.840360  20735.834622      3.313266
PE03   7396.477746  28611.447296   1773.768679      6.248648
PE04 -16733.221805 -16242.598521 -18234.233317     33.314136
PE05  -6302.609663  24243.867681 -15771.660994    331.101606
PE07  16284.759586  -5701.859944  24052.787359     92.443049
PE08  16781.873452  16134.572500  18284.842848   6650.861731
PE09 -16100.558475   5775.502311 -24156.345400   6888.168636
PE11 -24469.777450  12817.794885  10616.516615   1851.300881
PE12 -17707.607821  -4966.534608  23200.696097   3402.806949
PE14 -13367.822047  -7418.472176  18110.096945   6638.821337
PE18  20604.959854   3094.962950 -24841.677633   6462.969009
PE19  -6270.183542 -28932.708700     66.060429     18.924585
PE24 -26170.090622   1023.867331  13805.838870   6887.472066
PE26  17039.912603 -22870.442120   7923.628715   6323.859927
PE30  26667.895606  11894.929163   4799.531651   6115.476162
PG01   2207.086989  15003.299417 -21924.819790    -26.306053
PG02  19531.849854 -14857.229643  10341.445083    213.327230
PG03   9922.993915  21317.625137 -12416.499031      0.079394
PG04 -19719.059240  -3188.723617  17412.895077     34.864946
PG05   9098.788754 -12553.073673  21454.201552    -15.526685
PG06  25619.910279  -6942.277791  -1111.260492    414.833035
PG07  18328.527541   7935.999978  17925.680727    243.662479
PG08  -4943.227640  25989.222226  -1272.535451    -89.537110
PG09  10289.506157  15523.606336  18895.460132    497.535339
PG10 -21647.011529  -7198.776800 -13696.121121    153.772689
PG11   -348.272580  19527.584798 -18614.773421   -735.325532
PG12  -7023.150967 -21397.735790 -14413.938947    352.735723
PG13  12374.671074 -22832.204759   5476.348933    -95.512867
PG14 -16325.980104  11134.077070 -17386.345610    -93.251516
PG15   2189.482785 -26162.812771  -2441.871458   -357.210351
PG16  -9262.250037  11355.082766  21987.031272     33.139543
PG17  15263.504415  -1583.632273 -21275.375896   -126.873268
PG19  16596.474509  -9641.765199 -18727.639397   -460.202825
PG20  -9705.749665 -20421.146292  13827.353672    499.709484
PG21 -20108.622896  -6105.261078  17065.446206   -435.750308
PG22   3572.278794  19842.197475 -17041.530992   -275.515374
PG23   2877.675484  23867.629967  11069.506494   -219.041824
PG24    905.940350 -16383.583333 -20948.018686    -45.477757
PG25 -17555.800280 -19842.177577  -3389.870076   -531.162435
PG26 -17378.355151   3094.575753  19883.020291   -267.541560
PG27 -12272.673320  20798.812916  10711.740989    365.224837
PG28  20560.549216  12162.803848 -10933.108471    684.623372
PG29  -6124.954426 -19327.519264  17157.683296    503.294724
PG30  24029.510160   2535.102403  11194.668328    107.793373
PG31 -25869.567342   6965.656683    144.027054    144.938039
PG32 -15854.286263   2524.633503 -21124.212669   -532.953569
PJ01 -22216.097904  19289.564930 -25594.525556   -128.312038
PJ02 -30099.201765  23613.292356  22358.894154     -0.047396
PJ03 -27592.150498  27482.956629  21357.410963     -0.173603
PR01  10799.663434  22961.275544   2686.928106     21.417640
PR02  13601.021091   9509.461600  19384.281196    292.888036
PR03   8052.841318  -8907.633807  22542.192846    122.847673
PR04  -2543.572297 -22259.889497  12218.295824    248.094461
PR05 -11482.102244 -22346.658847  -4401.831286   -239.599465
PR06 -13808.604319  -8466.884871 -19731.291320    126.162029
PR07  -7864.559753   9219.621352 -22413.622432    -28.890334
PR08   2152.725232  21995.548257 -12691.489202    -27.027278
PR09 -25004.358205  -4714.508261  -1260.203901     47.226134
PR10 -19733.810193   4026.670417  15584.612853     17.160393
PR11  -2636.126073  10683.699126  23024.884178    -20.720023
PR13  25210.941921   3850.043092    481.677720     -7.025469
PR14  20013.895334  -4094.629636 -15268.264462     24.305472
PR15   6364.663799  -9548.027812 -22762.703111     -5.861711
PR16 -15486.640718 -10539.147976 -17396.629770     84.500778
PR17  17922.139064 -16208.070155  -8105.464449    105.396779
PR18  11615.667220 -20930.589321   8923.092286    183.108906
PR19  -1116.009753 -13805.842467  21426.872908    -43.136860
PR20 -14206.172189   2059.416205  21084.368426   -325.442831
PR21 -17878.436913  16398.450004   7925.025804     21.086544
PR22 -10479.098193  20613.014929 -10610.964119    -14.863992
PR23   4004.683736  11350.943683 -22489.276420    133.473096
PR24  14542.260615  -2922.511998 -20773.757844   -161.829864
PR26 -14174.531398   2241.307736  21109.454667 999999.999999
EOF
